{
    "links": {
        "self": "http://www.neowsapp.com/rest/v1/neo/3698492?api_key=iIulBulltgU6a56xZRHN4H3l9WmuAYTsLGpBGhQ2"
    },
    "id": "3698492",
    "neo_reference_id": "3698492",
    "name": "(2014 HP196)",
    "designation": "2014 HP196",
    "nasa_jpl_url": "http://ssd.jpl.nasa.gov/sbdb.cgi?sstr=3698492",
    "absolute_magnitude_h": 25.2,
    "estimated_diameter": {
        "kilometers": {
            "estimated_diameter_min": 0.0242412481,
            "estimated_diameter_max": 0.0542050786
        },
        "meters": {
            "estimated_diameter_min": 24.2412481101,
            "estimated_diameter_max": 54.2050786336
        },
        "miles": {
            "estimated_diameter_min": 0.0150628086,
            "estimated_diameter_max": 0.0336814639
        },
        "feet": {
            "estimated_diameter_min": 79.5316564495,
            "estimated_diameter_max": 177.8381901842
        }
    },
    "is_potentially_hazardous_asteroid": false,
    "close_approach_data": [
        {
            "close_approach_date": "2013-11-29",
            "close_approach_date_full": "2013-Nov-29 22:22",
            "epoch_date_close_approach": 1385763720000,
            "relative_velocity": {
                "kilometers_per_second": "10.9083708673",
                "kilometers_per_hour": "39270.1351221158",
                "miles_per_hour": "24400.9347929614"
            },
            "miss_distance": {
                "astronomical": "0.0936264178",
                "lunar": "36.4206765242",
                "kilometers": "14006312.678610086",
                "miles": "8703119.1294917468"
            },
            "orbiting_body": "Venus"
        },
        {
            "close_approach_date": "2014-04-11",
            "close_approach_date_full": "2014-Apr-11 07:31",
            "epoch_date_close_approach": 1397201460000,
            "relative_velocity": {
                "kilometers_per_second": "10.9028324804",
                "kilometers_per_hour": "39250.196929508",
                "miles_per_hour": "24388.545975449"
            },
            "miss_distance": {
                "astronomical": "0.2396896813",
                "lunar": "93.2392860257",
                "kilometers": "35857065.783458831",
                "miles": "22280547.5151246278"
            },
            "orbiting_body": "Earth"
        }
    ],
    "orbital_data": {
        "orbit_id": "3",
        "orbit_determination_date": "2017-04-06 08:41:04",
        "first_observation_date": "2014-04-23",
        "last_observation_date": "2014-04-25",
        "data_arc_in_days": 2,
        "observations_used": 28,
        "orbit_uncertainty": "9",
        "minimum_orbit_intersection": ".167261",
        "jupiter_tisserand_invariant": "5.563",
        "epoch_osculation": "2456771.5",
        "eccentricity": ".3103881357912642",
        "semi_major_axis": "1.098638001939035",
        "inclination": "18.7394167182671",
        "ascending_node_longitude": "37.60703154860647",
        "orbital_period": "420.6107349543246",
        "perihelion_distance": ".757633800607739",
        "perihelion_argument": "41.73321665959364",
        "aphelion_distance": "1.439642203270332",
        "perihelion_time": "2456650.583682865978",
        "mean_anomaly": "103.4920665374243",
        "mean_motion": ".8558982690707917",
        "equinox": "J2000",
        "orbit_class": {
            "orbit_class_type": "APO",
            "orbit_class_description": "Near-Earth asteroid orbits which cross the Earth’s orbit similar to that of 1862 Apollo",
            "orbit_class_range": "a (semi-major axis) > 1.0 AU; q (perihelion) < 1.017 AU"
        }
    },
    "is_sentry_object": false
}